ONEWEB-0020             
1 45133U 20008C   25333.98220352  .00000382  00000+0  10571-2 0  9991
2 45133  87.8816  75.9718 0001482 103.3558 256.7734 13.10369643282252
ONEWEB-0021             
1 45134U 20008D   25333.84441247 -.00000462  00000+0 -13602-2 0  9994
2 45134  87.8811  76.0293 0001719 105.1597 254.9721 13.10368739282547
ONEWEB-0023             
1 45136U 20008F   25333.85519487 -.00000662  00000+0 -19335-2 0  9990
2 45136  87.8804  76.0084 0001444 110.8941 249.2341 13.10371416281977
ONEWEB-0024             
1 45137U 20008G   25333.98054539  .00000448  00000+0  12464-2 0  9993
2 45137  87.8828  75.9506 0001698 102.9712 257.1605 13.10370995282153
ONEWEB-0025             
1 45138U 20008H   25333.84524257 -.00000471  00000+0 -13862-2 0  9999
2 45138  87.8817  75.9830 0001760 115.4288 244.7021 13.10369164282463
ONEWEB-0026             
1 45139U 20008J   25334.17658912  .00000136  00000+0  34746-3 0  9994
2 45139  87.8870  60.6945 0001635  97.8766 262.2547 13.11415126285020
ONEWEB-0028             
1 45140U 20008K   25333.98075344 -.00000206  00000+0 -61777-3 0  9990
2 45140  87.8862  60.7487 0002044 121.1804 238.9525 13.11417823282517
ONEWEB-0032             
1 45141U 20008L   25334.01372367 -.00000663  00000+0 -19360-2 0  9998
2 45141  87.8812  75.9787 0001657 109.7967 250.3339 13.10372875282219
